start=new Date('2023-01-24T00:00:00.000Z').valueOf();
sats=[{"TLE_LINE1":"1 44957U 20001AV  23023.16861908  .00000689  00000-0  65157-4 0  9992","SEMIMAJOR_AXIS":"6925.385","ELEMENT_SET_NO":"999","EPHEMERIS_TYPE":"0","MEAN_MOTION_DOT":"0.00000689","MEAN_ELEMENT_THEORY":"SGP4","INCLINATION":"53.0547","MEAN_MOTION":"15.06388051","RA_OF_ASC_NODE":"31.0870","OBJECT_ID":"2020-001AV","MEAN_ANOMALY":"265.9545","CENTER_NAME":"EARTH","PERIAPSIS":"546.234","LAUNCH_DATE":"2020-01-07","ECCENTRICITY":"0.00014680","EPOCH":"2023-01-23T04:02:48.688512","ARG_OF_PERICENTER":"94.1612","SITE":"AFETR","DECAY_DATE":null,"RCS_SIZE":"LARGE","NORAD_CAT_ID":"44957","FILE":"3758519","CLASSIFICATION_TYPE":"U","BSTAR":"0.00006515700000","MEAN_MOTION_DDOT":"0.0000000000000","REF_FRAME":"TEME","TIME_SYSTEM":"UTC","PERIOD":"95.593","GP_ID":"223606562","REV_AT_EPOCH":"16835","COUNTRY_CODE":"US","TLE_LINE2":"2 44957  53.0547  31.0870 0001468  94.1612 265.9545 15.06388051168352","APOAPSIS":"548.267","OBJECT_TYPE":"PAYLOAD","OBJECT_NAME":"STARLINK-1074"},{"OBJECT_NAME":"STARLINK-1076","REV_AT_EPOCH":"16833","COUNTRY_CODE":"US","OBJECT_TYPE":"PAYLOAD","APOAPSIS":"547.982","TLE_LINE2":"2 44959  53.0558  31.6313 0001070  80.5433 279.5677 15.06390995168338","TIME_SYSTEM":"UTC","REF_FRAME":"TEME","GP_ID":"223606575","PERIOD":"95.593","BSTAR":"0.00052691000000","CLASSIFICATION_TYPE":"U","FILE":"3758520","NORAD_CAT_ID":"44959","MEAN_MOTION_DDOT":"0.0000000000000","ARG_OF_PERICENTER":"80.5433","EPOCH":"2023-01-23T01:14:19.356288","DECAY_DATE":null,"RCS_SIZE":"LARGE","SITE":"AFETR","ECCENTRICITY":"0.00010700","LAUNCH_DATE":"2020-01-07","PERIAPSIS":"546.500","CENTER_NAME":"EARTH","RA_OF_ASC_NODE":"31.6313","OBJECT_ID":"2020-001AX","MEAN_MOTION":"15.06390995","INCLINATION":"53.0558","MEAN_ANOMALY":"279.5677","MEAN_MOTION_DOT":"0.00007574","SEMIMAJOR_AXIS":"6925.376","ELEMENT_SET_NO":"999","EPHEMERIS_TYPE":"0","TLE_LINE1":"1 44959U 20001AX  23023.05161292  .00007574  00000-0  52691-3 0  9999","MEAN_ELEMENT_THEORY":"SGP4"},{"MEAN_ELEMENT_THEORY":"SGP4","MEAN_MOTION_DOT":"0.00004720","EPHEMERIS_TYPE":"0","SEMIMAJOR_AXIS":"6925.392","ELEMENT_SET_NO":"999","TLE_LINE1":"1 44961U 20001AZ  23023.39072210  .00004720  00000-0  33570-3 0  9995","MEAN_ANOMALY":"277.1331","OBJECT_ID":"2020-001AZ","RA_OF_ASC_NODE":"30.1166","MEAN_MOTION":"15.06385879","INCLINATION":"53.0520","ECCENTRICITY":"0.00020350","PERIAPSIS":"545.848","LAUNCH_DATE":"2020-01-07","CENTER_NAME":"EARTH","DECAY_DATE":null,"RCS_SIZE":"LARGE","SITE":"AFETR","ARG_OF_PERICENTER":"82.9889","EPOCH":"2023-01-23T09:22:38.389440","MEAN_MOTION_DDOT":"0.0000000000000","BSTAR":"0.00033570000000","CLASSIFICATION_TYPE":"U","FILE":"3758779","NORAD_CAT_ID":"44961","GP_ID":"223612644","PERIOD":"95.593","TIME_SYSTEM":"UTC","REF_FRAME":"TEME","OBJECT_TYPE":"PAYLOAD","APOAPSIS":"548.666","TLE_LINE2":"2 44961  53.0520  30.1166 0002035  82.9889 277.1331 15.06385879168395","COUNTRY_CODE":"US","REV_AT_EPOCH":"16839","OBJECT_NAME":"STARLINK-1080"},{"OBJECT_NAME":"STARLINK-1085","COUNTRY_CODE":"US","REV_AT_EPOCH":"16958","TLE_LINE2":"2 44963  52.9762 353.1466 0005810 103.1363 257.0285 15.34253423169588","OBJECT_TYPE":"PAYLOAD","APOAPSIS":"467.116","TIME_SYSTEM":"UTC","REF_FRAME":"TEME","PERIOD":"93.857","GP_ID":"223620140","FILE":"3759115","NORAD_CAT_ID":"44963","BSTAR":"0.00480790000000","CLASSIFICATION_TYPE":"U","MEAN_MOTION_DDOT":"0.0000000000000","EPOCH":"2023-01-23T09:16:48.738144","ARG_OF_PERICENTER":"103.1363","SITE":"AFETR","DECAY_DATE":null,"RCS_SIZE":"LARGE","LAUNCH_DATE":"2020-01-07","PERIAPSIS":"459.166","CENTER_NAME":"EARTH","ECCENTRICITY":"0.00058100","MEAN_MOTION":"15.34253423","INCLINATION":"52.9762","OBJECT_ID":"2020-001BB","RA_OF_ASC_NODE":"353.1466","MEAN_ANOMALY":"257.0285","TLE_LINE1":"1 44963U 20001BB  23023.38667521  .00164984  00000-0  48079-2 0  9999","MEAN_MOTION_DOT":"0.00164984","SEMIMAJOR_AXIS":"6841.276","ELEMENT_SET_NO":"999","EPHEMERIS_TYPE":"0","MEAN_ELEMENT_THEORY":"SGP4"},{"EPOCH":"2023-01-23T06:54:00.438912","ARG_OF_PERICENTER":"78.0933","DECAY_DATE":null,"RCS_SIZE":"LARGE","SITE":"AFETR","PERIAPSIS":"546.142","LAUNCH_DATE":"2020-01-07","CENTER_NAME":"EARTH","ECCENTRICITY":"0.00015940","MEAN_MOTION":"15.06389296","INCLINATION":"53.0559","RA_OF_ASC_NODE":"30.5722","OBJECT_ID":"2020-001BC","MEAN_ANOMALY":"282.0235","TLE_LINE1":"1 44964U 20001BC  23023.28750508  .00000106  00000-0  26024-4 0  9990","MEAN_MOTION_DOT":"0.00000106","EPHEMERIS_TYPE":"0","SEMIMAJOR_AXIS":"6925.381","ELEMENT_SET_NO":"999","MEAN_ELEMENT_THEORY":"SGP4","OBJECT_NAME":"STARLINK-1086","COUNTRY_CODE":"US","REV_AT_EPOCH":"16837","TLE_LINE2":"2 44964  53.0559  30.5722 0001594  78.0933 282.0235 15.06389296168370","OBJECT_TYPE":"PAYLOAD","APOAPSIS":"548.350","REF_FRAME":"TEME","TIME_SYSTEM":"UTC","PERIOD":"95.593","GP_ID":"223612958","NORAD_CAT_ID":"44964","FILE":"3758790","BSTAR":"0.00002602400000","CLASSIFICATION_TYPE":"U","MEAN_MOTION_DDOT":"0.0000000000000"},{"REV_AT_EPOCH":"16843","COUNTRY_CODE":"US","APOAPSIS":"547.989","OBJECT_TYPE":"PAYLOAD","TLE_LINE2":"2 44966  53.0526  28.6945 0001982 105.4926 254.6282 15.06594836168431","OBJECT_NAME":"STARLINK-1088","CLASSIFICATION_TYPE":"U","BSTAR":"0.00184270000000","FILE":"3759115","NORAD_CAT_ID":"44966","MEAN_MOTION_DDOT":"0.0000000000000","REF_FRAME":"TEME","TIME_SYSTEM":"UTC","GP_ID":"223620149","PERIOD":"95.580","ECCENTRICITY":"0.00019820","CENTER_NAME":"EARTH","PERIAPSIS":"545.244","LAUNCH_DATE":"2020-01-07","ARG_OF_PERICENTER":"105.4926","EPOCH":"2023-01-23T16:58:46.417152","DECAY_DATE":null,"SITE":"AFETR","RCS_SIZE":"LARGE","EPHEMERIS_TYPE":"0","SEMIMAJOR_AXIS":"6924.751","ELEMENT_SET_NO":"999","MEAN_MOTION_DOT":"0.00027418","TLE_LINE1":"1 44966U 20001BE  23023.70748168  .00027418  00000-0  18427-2 0  9999","MEAN_ELEMENT_THEORY":"SGP4","RA_OF_ASC_NODE":"28.6945","OBJECT_ID":"2020-001BE","INCLINATION":"53.0526","MEAN_MOTION":"15.06594836","MEAN_ANOMALY":"254.6282"},{"PERIOD":"95.592","GP_ID":"223599794","REF_FRAME":"TEME","TIME_SYSTEM":"UTC","MEAN_MOTION_DDOT":"0.0000000000000","FILE":"3758157","NORAD_CAT_ID":"44967","CLASSIFICATION_TYPE":"U","BSTAR":"0.00016786000000","OBJECT_NAME":"STARLINK-1089","TLE_LINE2":"2 44967  53.0541  33.0478 0001904 103.6764 256.4437 15.06394807168296","APOAPSIS":"548.548","OBJECT_TYPE":"PAYLOAD","REV_AT_EPOCH":"16829","COUNTRY_CODE":"US","MEAN_ANOMALY":"256.4437","INCLINATION":"53.0541","MEAN_MOTION":"15.06394807","RA_OF_ASC_NODE":"33.0478","OBJECT_ID":"2020-001BF","MEAN_ELEMENT_THEORY":"SGP4","TLE_LINE1":"1 44967U 20001BF  23022.73461953  .00002219  00000-0  16786-3 0  9995","SEMIMAJOR_AXIS":"6925.364","EPHEMERIS_TYPE":"0","ELEMENT_SET_NO":"999","MEAN_MOTION_DOT":"0.00002219","SITE":"AFETR","DECAY_DATE":null,"RCS_SIZE":"LARGE","EPOCH":"2023-01-22T17:37:51.127392","ARG_OF_PERICENTER":"103.6764","CENTER_NAME":"EARTH","PERIAPSIS":"545.911","LAUNCH_DATE":"2020-01-07","ECCENTRICITY":"0.00019040"},{"TIME_SYSTEM":"UTC","REF_FRAME":"TEME","PERIOD":"95.593","GP_ID":"223606602","NORAD_CAT_ID":"44968","FILE":"3758532","BSTAR":"-0.00005278500000","CLASSIFICATION_TYPE":"U","MEAN_MOTION_DDOT":"0.0000000000000","OBJECT_NAME":"STARLINK-1090","REV_AT_EPOCH":"16834","COUNTRY_CODE":"US","TLE_LINE2":"2 44968  53.0541  31.5841 0001771  98.6819 261.4370 15.06393615168344","OBJECT_TYPE":"PAYLOAD","APOAPSIS":"548.460","MEAN_MOTION":"15.06393615","INCLINATION":"53.0541","RA_OF_ASC_NODE":"31.5841","OBJECT_ID":"2020-001BG","MEAN_ANOMALY":"261.4370","TLE_LINE1":"1 44968U 20001BG  23023.06266846 -.00001068  00000-0 -52785-4 0  9990","MEAN_MOTION_DOT":"-0.00001068","SEMIMAJOR_AXIS":"6925.368","ELEMENT_SET_NO":"999","EPHEMERIS_TYPE":"0","MEAN_ELEMENT_THEORY":"SGP4","EPOCH":"2023-01-23T01:30:14.554944","ARG_OF_PERICENTER":"98.6819","RCS_SIZE":"LARGE","DECAY_DATE":null,"SITE":"AFETR","PERIAPSIS":"546.007","LAUNCH_DATE":"2020-01-07","CENTER_NAME":"EARTH","ECCENTRICITY":"0.00017710"},{"OBJECT_NAME":"STARLINK-1092","TLE_LINE2":"2 44969  53.0531  33.1093 0002212  99.8235 260.3004 15.06397329168288","OBJECT_TYPE":"PAYLOAD","APOAPSIS":"548.754","REV_AT_EPOCH":"16828","COUNTRY_CODE":"US","PERIOD":"95.592","GP_ID":"223599800","REF_FRAME":"TEME","TIME_SYSTEM":"UTC","MEAN_MOTION_DDOT":"0.0000000000000","FILE":"3758158","NORAD_CAT_ID":"44969","BSTAR":"-0.00036263000000","CLASSIFICATION_TYPE":"U","RCS_SIZE":"LARGE","DECAY_DATE":null,"SITE":"AFETR","EPOCH":"2023-01-22T17:21:55.410336","ARG_OF_PERICENTER":"99.8235","LAUNCH_DATE":"2020-01-07","PERIAPSIS":"545.690","CENTER_NAME":"EARTH","ECCENTRICITY":"0.00022120","MEAN_ANOMALY":"260.3004","MEAN_MOTION":"15.06397329","INCLINATION":"53.0531","OBJECT_ID":"2020-001BH","RA_OF_ASC_NODE":"33.1093","MEAN_ELEMENT_THEORY":"SGP4","TLE_LINE1":"1 44969U 20001BH  23022.72355799 -.00005679  00000-0 -36263-3 0  9993","MEAN_MOTION_DOT":"-0.00005679","SEMIMAJOR_AXIS":"6925.357","ELEMENT_SET_NO":"999","EPHEMERIS_TYPE":"0"},{"MEAN_MOTION_DDOT":"0.0000000000000","CLASSIFICATION_TYPE":"U","BSTAR":"0.00143000000000","NORAD_CAT_ID":"44970","FILE":"3758780","GP_ID":"223612973","PERIOD":"95.593","TIME_SYSTEM":"UTC","REF_FRAME":"TEME","APOAPSIS":"548.243","OBJECT_TYPE":"PAYLOAD","TLE_LINE2":"2 44970  53.0554  30.8181 0001446  83.1149 277.0004 15.06390692168354","COUNTRY_CODE":"US","REV_AT_EPOCH":"16835","OBJECT_NAME":"STARLINK-1093","MEAN_ELEMENT_THEORY":"SGP4","ELEMENT_SET_NO":"999","SEMIMAJOR_AXIS":"6925.377","EPHEMERIS_TYPE":"0","MEAN_MOTION_DOT":"0.00021077","TLE_LINE1":"1 44970U 20001BJ  23023.23222428  .00021077  00000-0  14300-2 0  9999","MEAN_ANOMALY":"277.0004","RA_OF_ASC_NODE":"30.8181","OBJECT_ID":"2020-001BJ","INCLINATION":"53.0554","MEAN_MOTION":"15.06390692","ECCENTRICITY":"0.00014460","CENTER_NAME":"EARTH","LAUNCH_DATE":"2020-01-07","PERIAPSIS":"546.241","DECAY_DATE":null,"SITE":"AFETR","RCS_SIZE":"LARGE","ARG_OF_PERICENTER":"83.1149","EPOCH":"2023-01-23T05:34:24.177792"}];
